OBJECT_NAME,OBJECT_ID,EPOCH,MEAN_MOTION,ECCENTRICITY,INCLINATION,RA_OF_ASC_NODE,ARG_OF_PERICENTER,MEAN_ANOMALY,EPHEMERIS_TYPE,CLASSIFICATION_TYPE,NORAD_CAT_ID,ELEMENT_SET_NO,REV_AT_EPOCH,BSTAR,MEAN_MOTION_DOT,MEAN_MOTION_DDOT
COSMOS 2532 (RODNIK-S 18),2018-097C,2026-07-24T07:03:38.758176,12.42910590,.00175972,82.5121,199.0910,340.8772,19.1646,0,U,43753,999,34688,-.16531519E-3,-.13E-6,0
MINXSS-2,2018-099A,2026-07-24T04:36:57.416544,15.49393529,.00087971,97.4513,282.6254,132.2346,227.9653,0,U,43758,999,41985,.98353176E-3,.54233E-3,0
SIRION PATHFINDER-2,2018-099B,2026-07-24T02:38:43.289664,15.14833526,.00093617,97.4239,253.2921,161.6229,198.5343,0,U,43759,999,41821,.2440367E-3,.4474E-4,0
AISTECHSAT 2,2018-099L,2026-07-24T03:02:51.826272,15.15786781,.00054991,97.4277,252.3559,152.6412,207.5111,0,U,43768,999,41787,.33764519E-3,.6384E-4,0
FOX-1CLIFF (AO-95),2018-099N,2026-07-24T02:24:08.890560,15.27427986,.0008044,97.4364,265.2237,205.0640,155.0210,0,U,43770,999,41885,.54175739E-3,.14496E-3,0
RANGE-A,2018-099R,2026-07-24T01:39:04.194720,15.13663500,.00094007,97.3952,246.5711,210.5942,149.4743,0,U,43773,999,41807,.27628079E-3,.4909E-4,0
SNUSAT-2,2018-099AA,2026-07-24T01:58:31.404288,15.22351461,.00110964,97.4042,257.9067,158.0948,202.0765,0,U,43782,999,41864,.45691762E-3,.10494E-3,0
SNUGLITE,2018-099AC,2026-07-24T02:08:11.804064,15.27918765,.00043095,97.3850,259.0193,137.6927,222.4646,0,U,43784,999,41895,.57863376E-3,.15714E-3,0
ITASAT,2018-099AE,2026-07-24T02:27:41.144256,15.19469223,.00115281,97.4012,255.8829,216.0245,144.0214,0,U,43786,999,41851,.38739242E-3,.8165E-4,0
EAGLET-I,2018-099AJ,2026-07-24T02:05:34.601856,15.13185572,.00102647,97.4211,253.7792,210.1037,149.9606,0,U,43790,999,41791,.27411149E-3,.4806E-4,0
ESEO,2018-099AL,2026-07-24T02:20:55.548096,15.04348897,.0011384,97.3964,240.9043,198.6161,161.4650,0,U,43792,999,41735,.11379077E-3,.153E-4,0
THEA,2018-099AQ,2026-07-24T03:34:45.635520,15.36200599,.00086087,97.4426,275.2280,146.3920,213.7871,0,U,43796,999,41836,.71041727E-3,.25061E-3,0
ASTROCAST 0.1,2018-099AS,2026-07-24T04:04:22.669248,15.52016811,.00051003,97.4365,284.8855,103.9357,256.2463,0,U,43798,999,42016,.86008274E-3,.5196E-3,0
JY1SAT (JO-97),2018-099AX,2026-07-24T03:24:01.993536,15.34763412,.00073717,97.4111,268.1279,132.1697,228.0173,0,U,43803,999,41929,.67750677E-3,.22811E-3,0
SUOMI-100,2018-099AY,2026-07-24T02:54:26.463168,15.29207787,.00112425,97.4169,265.3921,143.5117,216.6891,0,U,43804,999,41906,.62020777E-3,.17556E-3,0
CENTAURI-1,2018-099BD,2026-07-24T02:09:21.515904,15.16694638,.0013826,97.4204,256.0201,192.7326,167.3560,0,U,43809,999,41809,.34250229E-3,.666E-4,0
GLOBAL-2,2018-099BG,2026-07-24T01:57:59.235840,15.08867739,.00068665,97.3547,240.0617,43.2751,316.9016,0,U,43812,999,41747,.19871688E-3,.3071E-4,0
SEAHAWK-1,2018-099BQ,2026-07-24T02:58:55.683840,15.23357421,.00087806,97.3941,257.0553,167.7478,192.3974,0,U,43820,999,41815,.45424173E-3,.10742E-3,0
SAUDISAT 5A,2018-102A,2026-07-24T06:58:19.594848,15.28395883,.00095271,97.3048,266.1597,13.6340,346.5156,0,U,43831,999,42134,.24998865E-3,.6847E-4,0
SAUDISAT 5B,2018-102C,2026-07-24T07:16:48.257184,15.28635198,.0010308,97.3157,269.3093,14.9806,345.1737,0,U,43833,999,42146,.23810247E-3,.6567E-4,0
ISAT,2018-111D,2026-07-23T18:33:30.985056,15.72645486,.00086769,97.5838,143.0089,126.5974,233.6088,0,U,43879,999,41690,.99191506E-3,.13497E-2,0
UWE-4,2018-111E,2026-07-23T18:08:13.137504,15.48253700,.00075987,97.5823,134.8907,164.6158,195.5324,0,U,43880,999,41643,.65481741E-3,.34567E-3,0
D-STAR ONE (SPARROW),2018-111F,2026-07-23T14:04:03.525024,15.89243345,.0009405,97.6070,149.2649,138.7768,221.4215,0,U,43881,999,41712,.13524E-2,.38781E-2,.57585E-4
JILIN-1 09,2019-005B,2026-07-24T07:01:30.821376,15.20802232,.00014679,97.4740,299.9462,13.0233,347.1040,0,U,43943,999,41478,.2456955E-3,.5348E-4,0
JILIN-1 10,2019-005E,2026-07-24T07:24:20.151648,15.26088261,.00093097,97.4792,304.1241,140.7818,219.4097,0,U,43946,999,41497,.27792646E-3,.71E-4,0
EGYPTSAT-A (MISRSAT-A),2019-008A,2026-07-24T07:37:31.305216,14.72343045,.00018151,98.0176,269.5785,89.9994,270.1421,0,U,44047,999,39870,.59830346E-4,.329E-5,0
EMISAT,2019-018A,2026-07-24T07:03:17.786304,14.43652276,.00197033,98.4629,263.8855,105.5792,254.7575,0,U,44078,999,38541,.65670789E-4,.179E-5,0
JILIN-1 GAOFEN 3A,2019-032C,2026-07-24T07:01:36.660288,15.33359572,.00055991,44.9734,152.6025,167.9212,192.1808,0,U,44312,999,39353,.5015158E-3,.16217E-3,0
WT 1B,2019-032G,2026-07-24T08:15:53.549856,15.27854797,.00082927,44.9714,218.0119,95.7411,264.4417,0,U,44316,999,39276,.40056591E-3,.10827E-3,0
