COSMOS 2532 (RODNIK-S *)
1 43753U 18097C   26205.29419859 -.00000013  00000+0 -16532-3 0  9994
2 43753  82.5121 199.0910 0017597 340.8772  19.1646 12.42910590346881
MINXSS-2                
1 43758U 18099A   26205.19233121  .00054233  00000+0  98353-3 0  9998
2 43758  97.4513 282.6254 0008797 132.2346 227.9653 15.49393529419850
SIRION PATHFINDER-2     
1 43759U 18099B   26205.11022326  .00004474  00000+0  24404-3 0  9992
2 43759  97.4239 253.2921 0009361 161.6229 198.5343 15.14833526418211
AISTECHSAT 2            
1 43768U 18099L   26205.12698873  .00006384  00000+0  33765-3 0  9991
2 43768  97.4277 252.3559 0005499 152.6412 207.5111 15.15786781417878
FOX-1CLIFF (AO-95)      
1 43770U 18099N   26205.10010290  .00014496  00000+0  54176-3 0  9995
2 43770  97.4364 265.2237 0008044 205.0640 155.0210 15.27427986418857
RANGE-A                 
1 43773U 18099R   26205.06879855  .00004909  00000+0  27628-3 0  9993
2 43773  97.3952 246.5711 0009400 210.5942 149.4743 15.13663500418075
SNUSAT-2                
1 43782U 18099AA  26205.08230792  .00010494  00000+0  45692-3 0  9993
2 43782  97.4042 257.9067 0011096 158.0948 202.0765 15.22351461418645
SNUGLITE                
1 43784U 18099AC  26205.08902551  .00015714  00000+0  57863-3 0  9997
2 43784  97.3850 259.0193 0004309 137.6927 222.4646 15.27918765418954
ITASAT                  
1 43786U 18099AE  26205.10255954  .00008165  00000+0  38739-3 0  9993
2 43786  97.4012 255.8829 0011528 216.0245 144.0214 15.19469223418516
EAGLET-I                
1 43790U 18099AJ  26205.08720604  .00004806  00000+0  27411-3 0  9997
2 43790  97.4211 253.7792 0010264 210.1037 149.9606 15.13185572417916
ESEO                    
1 43792U 18099AL  26205.09786514  .00001530  00000+0  11379-3 0  9999
2 43792  97.3964 240.9043 0011384 198.6161 161.4650 15.04348897417358
THEA                    
1 43796U 18099AQ  26205.14913930  .00025061  00000+0  71042-3 0  9991
2 43796  97.4426 275.2280 0008608 146.3920 213.7871 15.36200599418367
ASTROCAST 0.1           
1 43798U 18099AS  26205.16970682  .00051960  00000+0  86008-3 0  9997
2 43798  97.4365 284.8855 0005100 103.9357 256.2463 15.52016811420162
JY1SAT (JO-97)          
1 43803U 18099AX  26205.14168974  .00022811  00000+0  67751-3 0  9992
2 43803  97.4111 268.1279 0007371 132.1697 228.0173 15.34763412419299
SUOMI-100               
1 43804U 18099AY  26205.12113962  .00017556  00000+0  62021-3 0  9993
2 43804  97.4169 265.3921 0011242 143.5117 216.6891 15.29207787419068
CENTAURI-1              
1 43809U 18099BD  26205.08983236  .00006660  00000+0  34250-3 0  9999
2 43809  97.4204 256.0201 0013826 192.7326 167.3560 15.16694638418097
GLOBAL-2                
1 43812U 18099BG  26205.08193560  .00003071  00000+0  19872-3 0  9992
2 43812  97.3547 240.0617 0006866  43.2751 316.9016 15.08867739417476
SEAHAWK-1               
1 43820U 18099BQ  26205.12425560  .00010742  00000+0  45424-3 0  9999
2 43820  97.3941 257.0553 0008780 167.7478 192.3974 15.23357421418159
SAUDISAT 5A             
1 43831U 18102A   26205.29050457  .00006847  00000+0  24999-3 0  9998
2 43831  97.3048 266.1597 0009527  13.6340 346.5156 15.28395883421344
SAUDISAT 5B             
1 43833U 18102C   26205.30333631  .00006567  00000+0  23810-3 0  9990
2 43833  97.3157 269.3093 0010308  14.9806 345.1737 15.28635198421462
ISAT                    
1 43879U 18111D   26204.77327529  .00134970  00000+0  99192-3 0  9995
2 43879  97.5838 143.0089 0008676 126.5974 233.6088 15.72645486416907
UWE-4                   
1 43880U 18111E   26204.75570761  .00034567  00000+0  65482-3 0  9999
2 43880  97.5823 134.8907 0007598 164.6158 195.5324 15.48253700416433
D-STAR ONE (SPARROW)    
1 43881U 18111F   26204.58615191  .00387810  57585-4  13524-2 0  9994
2 43881  97.6070 149.2649 0009405 138.7768 221.4215 15.89243345417124
JILIN-1 09              
1 43943U 19005B   26205.29271784  .00005348  00000+0  24570-3 0  9993
2 43943  97.4740 299.9462 0001467  13.0233 347.1040 15.20802232414785
JILIN-1 10              
1 43946U 19005E   26205.30856657  .00007100  00000+0  27793-3 0  9994
2 43946  97.4792 304.1241 0009309 140.7818 219.4097 15.26088261414977
EGYPTSAT-A (MISRSAT-A)  
1 44047U 19008A   26205.31772344  .00000329  00000+0  59830-4 0  9995
2 44047  98.0176 269.5785 0001815  89.9994 270.1421 14.72343045398704
EMISAT                  
1 44078U 19018A   26205.29395586  .00000179  00000+0  65671-4 0  9999
2 44078  98.4629 263.8855 0019703 105.5792 254.7575 14.43652276385415
JILIN-1 GAOFEN 3A       
1 44312U 19032C   26205.29278542  .00016217  00000+0  50152-3 0  9995
2 44312  44.9734 152.6025 0005599 167.9212 192.1808 15.33359572393539
WT 1B                   
1 44316U 19032G   26205.34436979  .00010827  00000+0  40057-3 0  9999
2 44316  44.9714 218.0119 0008292  95.7411 264.4417 15.27854797392769
